STARLINK-2190           
1 48564U 21041M   26064.60864001 -.00000227  00000+0  44790-5 0  9998
2 48564  53.1615 145.6492 0001284 103.0246 257.0898 15.30191173264655
STARLINK-2214           
1 48566U 21041P   26065.26088868  .00000352  00000+0  42562-4 0  9994
2 48566  53.0566 156.9830 0001804 102.7349 257.3842 15.06404232264546
STARLINK-2217           
1 48568U 21041R   26065.17961508  .00001825  00000+0  73736-4 0  9990
2 48568  53.1608 143.0602 0002070  51.2580 308.8605 15.30199224264730
STARLINK-2219           
1 48569U 21041S   26064.61388905  .00008934  00000+0  31318-3 0  9990
2 48569  53.1614 145.6403 0001248  94.8970 265.2174 15.30222738264652
STARLINK-2220           
1 48570U 21041T   26064.63796950  .00010360  00000+0  71273-3 0  9997
2 48570  53.0540 159.8050 0001325 100.0677 260.0462 15.06434811264446
STARLINK-2221           
1 48571U 21041U   26065.25002315  .00046053  00000+0  15582-2 0  9990
2 48571  53.1586 155.5619 0001383  90.5346  56.4161 15.30184293  5834
STARLINK-2222           
1 48572U 21041V   26065.23878984  .00011746  00000+0  80638-3 0  9998
2 48572  53.0543 157.1121 0001679  92.1201 267.9980 15.06388245264548
STARLINK-2224           
1 48573U 21041W   26064.60762015  .00000256  00000+0  20785-4 0  9998
2 48573  53.1595 145.8974 0001144  83.7957 276.3174 15.30177154264640
STARLINK-2225           
1 48574U 21041X   26065.25002315  .01433814  00000+0  59434-1 0  9992
2 48574  53.1151 116.7946 0001709 104.5816  71.5994 15.20452364  5778
STARLINK-2227           
1 48575U 21041Y   26065.27802390  .00004145  00000+0  15204-3 0  9995
2 48575  53.1593 104.0689 0001768  73.9531 286.1664 15.30190396265301
STARLINK-2228           
1 48576U 21041Z   26065.28489623  .00003868  00000+0  14271-3 0  9991
2 48576  53.1590 116.8213 0001342  85.6166 274.4988 15.30186226265121
STARLINK-2231           
1 48577U 21041AA  26064.59392016  .00002468  00000+0  95456-4 0  9994
2 48577  53.1602 145.9145 0001206  97.2935 262.8203 15.30193808264646
STARLINK-2232           
1 48578U 21041AB  26065.27338310  .00000726  00000+0  36662-4 0  9997
2 48578  53.1599 142.5716 0001379  86.1101 274.0057 15.30185416264752
STARLINK-2234           
1 48580U 21041AD  26065.11634871  .00001461  00000+0  61477-4 0  9993
2 48580  53.1601 117.6120 0002569  40.8931 319.2263 15.30191341265094
STARLINK-2235           
1 48581U 21041AE  26064.13162311 -.00001624  00000+0 -90179-4 0  9994
2 48581  53.0541 117.0927 0001434  88.0811 272.0342 15.06390836265016
STARLINK-2236           
1 48582U 21041AF  26064.51128598  .00006754  00000+0  47183-3 0  9999
2 48582  53.0545 115.5410 0001265  71.1973 288.9153 15.06404411265061
