[{"OBJECT_NAME":"STARLINK-2190","OBJECT_ID":"2021-041M","EPOCH":"2026-03-05T14:36:26.496864","MEAN_MOTION":15.30191173,"ECCENTRICITY":0.0001284,"INCLINATION":53.1615,"RA_OF_ASC_NODE":145.6492,"ARG_OF_PERICENTER":103.0246,"MEAN_ANOMALY":257.0898,"EPHEMERIS_TYPE":0,"CLASSIFICATION_TYPE":"U","NORAD_CAT_ID":48564,"ELEMENT_SET_NO":999,"REV_AT_EPOCH":26465,"BSTAR":4.479e-6,"MEAN_MOTION_DOT":-2.27e-6,"MEAN_MOTION_DDOT":0},{"OBJECT_NAME":"STARLINK-2214","OBJECT_ID":"2021-041P","EPOCH":"2026-03-06T06:15:40.781952","MEAN_MOTION":15.06404232,"ECCENTRICITY":0.00018044,"INCLINATION":53.0566,"RA_OF_ASC_NODE":156.983,"ARG_OF_PERICENTER":102.7349,"MEAN_ANOMALY":257.3842,"EPHEMERIS_TYPE":0,"CLASSIFICATION_TYPE":"U","NORAD_CAT_ID":48566,"ELEMENT_SET_NO":999,"REV_AT_EPOCH":26454,"BSTAR":4.2561624e-5,"MEAN_MOTION_DOT":3.52e-6,"MEAN_MOTION_DDOT":0},{"OBJECT_NAME":"STARLINK-2217","OBJECT_ID":"2021-041R","EPOCH":"2026-03-06T04:18:38.742912","MEAN_MOTION":15.30199224,"ECCENTRICITY":0.00020702,"INCLINATION":53.1608,"RA_OF_ASC_NODE":143.0602,"ARG_OF_PERICENTER":51.258,"MEAN_ANOMALY":308.8605,"EPHEMERIS_TYPE":0,"CLASSIFICATION_TYPE":"U","NORAD_CAT_ID":48568,"ELEMENT_SET_NO":999,"REV_AT_EPOCH":26473,"BSTAR":7.3735827e-5,"MEAN_MOTION_DOT":1.825e-5,"MEAN_MOTION_DDOT":0},{"OBJECT_NAME":"STARLINK-2219","OBJECT_ID":"2021-041S","EPOCH":"2026-03-05T14:44:00.013920","MEAN_MOTION":15.30222738,"ECCENTRICITY":0.0001248,"INCLINATION":53.1614,"RA_OF_ASC_NODE":145.6403,"ARG_OF_PERICENTER":94.897,"MEAN_ANOMALY":265.2174,"EPHEMERIS_TYPE":0,"CLASSIFICATION_TYPE":"U","NORAD_CAT_ID":48569,"ELEMENT_SET_NO":999,"REV_AT_EPOCH":26465,"BSTAR":0.00031318,"MEAN_MOTION_DOT":8.934e-5,"MEAN_MOTION_DDOT":0},{"OBJECT_NAME":"STARLINK-2220","OBJECT_ID":"2021-041T","EPOCH":"2026-03-05T15:18:40.564800","MEAN_MOTION":15.06434811,"ECCENTRICITY":0.0001325,"INCLINATION":53.054,"RA_OF_ASC_NODE":159.805,"ARG_OF_PERICENTER":100.0677,"MEAN_ANOMALY":260.0462,"EPHEMERIS_TYPE":0,"CLASSIFICATION_TYPE":"U","NORAD_CAT_ID":48570,"ELEMENT_SET_NO":999,"REV_AT_EPOCH":26444,"BSTAR":0.00071273,"MEAN_MOTION_DOT":0.0001036,"MEAN_MOTION_DDOT":0},{"OBJECT_NAME":"STARLINK-2221","OBJECT_ID":"2021-041U","EPOCH":"2026-03-06T06:00:02.000160","MEAN_MOTION":15.30184293,"ECCENTRICITY":0.00013839,"INCLINATION":53.1586,"RA_OF_ASC_NODE":155.5619,"ARG_OF_PERICENTER":90.5346,"MEAN_ANOMALY":56.4161,"EPHEMERIS_TYPE":0,"CLASSIFICATION_TYPE":"U","NORAD_CAT_ID":48571,"ELEMENT_SET_NO":999,"REV_AT_EPOCH":583,"BSTAR":0.0015581506,"MEAN_MOTION_DOT":0.00046053,"MEAN_MOTION_DDOT":0},{"OBJECT_NAME":"STARLINK-2222","OBJECT_ID":"2021-041V","EPOCH":"2026-03-06T05:43:51.442176","MEAN_MOTION":15.06388245,"ECCENTRICITY":0.00016794,"INCLINATION":53.0543,"RA_OF_ASC_NODE":157.1121,"ARG_OF_PERICENTER":92.1201,"MEAN_ANOMALY":267.998,"EPHEMERIS_TYPE":0,"CLASSIFICATION_TYPE":"U","NORAD_CAT_ID":48572,"ELEMENT_SET_NO":999,"REV_AT_EPOCH":26454,"BSTAR":0.00080637669,"MEAN_MOTION_DOT":0.00011746,"MEAN_MOTION_DDOT":0},{"OBJECT_NAME":"STARLINK-2224","OBJECT_ID":"2021-041W","EPOCH":"2026-03-05T14:34:58.380960","MEAN_MOTION":15.30177154,"ECCENTRICITY":0.0001144,"INCLINATION":53.1595,"RA_OF_ASC_NODE":145.8974,"ARG_OF_PERICENTER":83.7957,"MEAN_ANOMALY":276.3174,"EPHEMERIS_TYPE":0,"CLASSIFICATION_TYPE":"U","NORAD_CAT_ID":48573,"ELEMENT_SET_NO":999,"REV_AT_EPOCH":26464,"BSTAR":2.0785e-5,"MEAN_MOTION_DOT":2.56e-6,"MEAN_MOTION_DDOT":0},{"OBJECT_NAME":"STARLINK-2225","OBJECT_ID":"2021-041X","EPOCH":"2026-03-06T06:00:02.000160","MEAN_MOTION":15.20452364,"ECCENTRICITY":0.00017098,"INCLINATION":53.1151,"RA_OF_ASC_NODE":116.7946,"ARG_OF_PERICENTER":104.5816,"MEAN_ANOMALY":71.5994,"EPHEMERIS_TYPE":0,"CLASSIFICATION_TYPE":"U","NORAD_CAT_ID":48574,"ELEMENT_SET_NO":999,"REV_AT_EPOCH":577,"BSTAR":0.059433745,"MEAN_MOTION_DOT":0.01433814,"MEAN_MOTION_DDOT":0},{"OBJECT_NAME":"STARLINK-2227","OBJECT_ID":"2021-041Y","EPOCH":"2026-03-06T06:40:21.264960","MEAN_MOTION":15.30190396,"ECCENTRICITY":0.00017684,"INCLINATION":53.1593,"RA_OF_ASC_NODE":104.0689,"ARG_OF_PERICENTER":73.9531,"MEAN_ANOMALY":286.1664,"EPHEMERIS_TYPE":0,"CLASSIFICATION_TYPE":"U","NORAD_CAT_ID":48575,"ELEMENT_SET_NO":999,"REV_AT_EPOCH":26530,"BSTAR":0.00015204305,"MEAN_MOTION_DOT":4.145e-5,"MEAN_MOTION_DDOT":0},{"OBJECT_NAME":"STARLINK-2228","OBJECT_ID":"2021-041Z","EPOCH":"2026-03-06T06:50:15.034272","MEAN_MOTION":15.30186226,"ECCENTRICITY":0.00013425,"INCLINATION":53.159,"RA_OF_ASC_NODE":116.8213,"ARG_OF_PERICENTER":85.6166,"MEAN_ANOMALY":274.4988,"EPHEMERIS_TYPE":0,"CLASSIFICATION_TYPE":"U","NORAD_CAT_ID":48576,"ELEMENT_SET_NO":999,"REV_AT_EPOCH":26512,"BSTAR":0.00014271263,"MEAN_MOTION_DOT":3.868e-5,"MEAN_MOTION_DDOT":0},{"OBJECT_NAME":"STARLINK-2231","OBJECT_ID":"2021-041AA","EPOCH":"2026-03-05T14:15:14.701824","MEAN_MOTION":15.30193808,"ECCENTRICITY":0.0001206,"INCLINATION":53.1602,"RA_OF_ASC_NODE":145.9145,"ARG_OF_PERICENTER":97.2935,"MEAN_ANOMALY":262.8203,"EPHEMERIS_TYPE":0,"CLASSIFICATION_TYPE":"U","NORAD_CAT_ID":48577,"ELEMENT_SET_NO":999,"REV_AT_EPOCH":26464,"BSTAR":9.5456e-5,"MEAN_MOTION_DOT":2.468e-5,"MEAN_MOTION_DDOT":0},{"OBJECT_NAME":"STARLINK-2232","OBJECT_ID":"2021-041AB","EPOCH":"2026-03-06T06:33:40.299840","MEAN_MOTION":15.30185416,"ECCENTRICITY":0.00013796,"INCLINATION":53.1599,"RA_OF_ASC_NODE":142.5716,"ARG_OF_PERICENTER":86.1101,"MEAN_ANOMALY":274.0057,"EPHEMERIS_TYPE":0,"CLASSIFICATION_TYPE":"U","NORAD_CAT_ID":48578,"ELEMENT_SET_NO":999,"REV_AT_EPOCH":26475,"BSTAR":3.6661572e-5,"MEAN_MOTION_DOT":7.26e-6,"MEAN_MOTION_DDOT":0},{"OBJECT_NAME":"STARLINK-2234","OBJECT_ID":"2021-041AD","EPOCH":"2026-03-06T02:47:32.528544","MEAN_MOTION":15.30191341,"ECCENTRICITY":0.00025699,"INCLINATION":53.1601,"RA_OF_ASC_NODE":117.612,"ARG_OF_PERICENTER":40.8931,"MEAN_ANOMALY":319.2263,"EPHEMERIS_TYPE":0,"CLASSIFICATION_TYPE":"U","NORAD_CAT_ID":48580,"ELEMENT_SET_NO":999,"REV_AT_EPOCH":26509,"BSTAR":6.1476853e-5,"MEAN_MOTION_DOT":1.461e-5,"MEAN_MOTION_DDOT":0},{"OBJECT_NAME":"STARLINK-2235","OBJECT_ID":"2021-041AE","EPOCH":"2026-03-05T03:09:32.236704","MEAN_MOTION":15.06390836,"ECCENTRICITY":0.00014348,"INCLINATION":53.0541,"RA_OF_ASC_NODE":117.0927,"ARG_OF_PERICENTER":88.0811,"MEAN_ANOMALY":272.0342,"EPHEMERIS_TYPE":0,"CLASSIFICATION_TYPE":"U","NORAD_CAT_ID":48581,"ELEMENT_SET_NO":999,"REV_AT_EPOCH":26501,"BSTAR":-9.0179416e-5,"MEAN_MOTION_DOT":-1.624e-5,"MEAN_MOTION_DDOT":0},{"OBJECT_NAME":"STARLINK-2236","OBJECT_ID":"2021-041AF","EPOCH":"2026-03-05T12:16:15.108672","MEAN_MOTION":15.06404411,"ECCENTRICITY":0.0001265,"INCLINATION":53.0545,"RA_OF_ASC_NODE":115.541,"ARG_OF_PERICENTER":71.1973,"MEAN_ANOMALY":288.9153,"EPHEMERIS_TYPE":0,"CLASSIFICATION_TYPE":"U","NORAD_CAT_ID":48582,"ELEMENT_SET_NO":999,"REV_AT_EPOCH":26506,"BSTAR":0.00047183,"MEAN_MOTION_DOT":6.754e-5,"MEAN_MOTION_DDOT":0}]
